[
  {
    "CCSDS_OMM_VERS": "2.0",
    "COMMENT": "GENERATED VIA SPACE-TRACK.ORG API",
    "CREATION_DATE": "2025-03-19T17:43:14",
    "ORIGINATOR": "18 SPCS",
    "OBJECT_NAME": "NAVSTAR 60 (USA 196)",
    "OBJECT_ID": "2007-047A",
    "CENTER_NAME": "EARTH",
    "REF_FRAME": "TEME",
    "TIME_SYSTEM": "UTC",
    "MEAN_ELEMENT_THEORY": "SGP4",
    "EPOCH": "2025-03-19T00:37:14.540736",
    "MEAN_MOTION": "2.00551341",
    "ECCENTRICITY": "0.01590800",
    "INCLINATION": "53.7696",
    "RA_OF_ASC_NODE": "98.8645",
    "ARG_OF_PERICENTER": "80.0213",
    "MEAN_ANOMALY": "281.8228",
    "EPHEMERIS_TYPE": "0",
    "CLASSIFICATION_TYPE": "U",
    "NORAD_CAT_ID": "32260",
    "ELEMENT_SET_NO": "999",
    "REV_AT_EPOCH": "12768",
    "BSTAR": "0.00000000000000",
    "MEAN_MOTION_DOT": "0.00000010",
    "MEAN_MOTION_DDOT": "0.0000000000000",
    "SEMIMAJOR_AXIS": "26561.431",
    "PERIOD": "718.021",
    "APOAPSIS": "20605.835",
    "PERIAPSIS": "19760.756",
    "OBJECT_TYPE": "PAYLOAD",
    "RCS_SIZE": "LARGE",
    "COUNTRY_CODE": "US",
    "LAUNCH_DATE": "2007-10-17",
    "SITE": "AFETR",
    "DECAY_DATE": null,
    "FILE": "4674121",
    "GP_ID": "283495148",
    "TLE_LINE0": "0 NAVSTAR 60 (USA 196)",
    "TLE_LINE1": "1 32260U 07047A   25078.02586274  .00000010  00000-0  00000-0 0  9998",
    "TLE_LINE2": "2 32260  53.7696  98.8645 0159080  80.0213 281.8228  2.00551341127684"
  },
  {
    "CCSDS_OMM_VERS": "2.0",
    "COMMENT": "GENERATED VIA SPACE-TRACK.ORG API",
    "CREATION_DATE": "2025-03-19T06:36:35",
    "ORIGINATOR": "18 SPCS",
    "OBJECT_NAME": "NAVSTAR 75 (USA 265)",
    "OBJECT_ID": "2015-062A",
    "CENTER_NAME": "EARTH",
    "REF_FRAME": "TEME",
    "TIME_SYSTEM": "UTC",
    "MEAN_ELEMENT_THEORY": "SGP4",
    "EPOCH": "2025-03-19T01:52:08.016384",
    "MEAN_MOTION": "2.00566833",
    "ECCENTRICITY": "0.01029860",
    "INCLINATION": "56.6311",
    "RA_OF_ASC_NODE": "48.3987",
    "ARG_OF_PERICENTER": "228.6142",
    "MEAN_ANOMALY": "130.4875",
    "EPHEMERIS_TYPE": "0",
    "CLASSIFICATION_TYPE": "U",
    "NORAD_CAT_ID": "41019",
    "ELEMENT_SET_NO": "999",
    "REV_AT_EPOCH": "6870",
    "BSTAR": "0.00000000000000",
    "MEAN_MOTION_DOT": "-0.00000042",
    "MEAN_MOTION_DDOT": "0.0000000000000",
    "SEMIMAJOR_AXIS": "26560.063",
    "PERIOD": "717.965",
    "APOAPSIS": "20455.459",
    "PERIAPSIS": "19908.396",
    "OBJECT_TYPE": "PAYLOAD",
    "RCS_SIZE": "LARGE",
    "COUNTRY_CODE": "US",
    "LAUNCH_DATE": "2015-10-31",
    "SITE": "AFETR",
    "DECAY_DATE": null,
    "FILE": "4673567",
    "GP_ID": "283470902",
    "TLE_LINE0": "0 NAVSTAR 75 (USA 265)",
    "TLE_LINE1": "1 41019U 15062A   25078.07787056 -.00000042  00000-0  00000+0 0  9997",
    "TLE_LINE2": "2 41019  56.6311  48.3987 0102986 228.6142 130.4875  2.00566833 68701"
  },
  {
    "CCSDS_OMM_VERS": "2.0",
    "COMMENT": "GENERATED VIA SPACE-TRACK.ORG API",
    "CREATION_DATE": "2025-03-19T17:43:14",
    "ORIGINATOR": "18 SPCS",
    "OBJECT_NAME": "NAVSTAR 61 (USA 199)",
    "OBJECT_ID": "2007-062A",
    "CENTER_NAME": "EARTH",
    "REF_FRAME": "TEME",
    "TIME_SYSTEM": "UTC",
    "MEAN_ELEMENT_THEORY": "SGP4",
    "EPOCH": "2025-03-19T02:04:33.233664",
    "MEAN_MOTION": "2.00562640",
    "ECCENTRICITY": "0.00297180",
    "INCLINATION": "55.4052",
    "RA_OF_ASC_NODE": "292.4032",
    "ARG_OF_PERICENTER": "153.4625",
    "MEAN_ANOMALY": "19.9251",
    "EPHEMERIS_TYPE": "0",
    "CLASSIFICATION_TYPE": "U",
    "NORAD_CAT_ID": "32384",
    "ELEMENT_SET_NO": "999",
    "REV_AT_EPOCH": "12638",
    "BSTAR": "0.00000000000000",
    "MEAN_MOTION_DOT": "-0.00000012",
    "MEAN_MOTION_DDOT": "0.0000000000000",
    "SEMIMAJOR_AXIS": "26560.433",
    "PERIOD": "717.980",
    "APOAPSIS": "20261.230",
    "PERIAPSIS": "20103.366",
    "OBJECT_TYPE": "PAYLOAD",
    "RCS_SIZE": "LARGE",
    "COUNTRY_CODE": "US",
    "LAUNCH_DATE": "2007-12-20",
    "SITE": "AFETR",
    "DECAY_DATE": null,
    "FILE": "4674121",
    "GP_ID": "283495184",
    "TLE_LINE0": "0 NAVSTAR 61 (USA 199)",
    "TLE_LINE1": "1 32384U 07062A   25078.08649576 -.00000012  00000-0  00000-0 0  9996",
    "TLE_LINE2": "2 32384  55.4052 292.4032 0029718 153.4625  19.9251  2.00562640126380"
  },
  {
    "CCSDS_OMM_VERS": "2.0",
    "COMMENT": "GENERATED VIA SPACE-TRACK.ORG API",
    "CREATION_DATE": "2025-03-19T17:43:14",
    "ORIGINATOR": "18 SPCS",
    "OBJECT_NAME": "NAVSTAR 81 (USA 319)",
    "OBJECT_ID": "2021-054A",
    "CENTER_NAME": "EARTH",
    "REF_FRAME": "TEME",
    "TIME_SYSTEM": "UTC",
    "MEAN_ELEMENT_THEORY": "SGP4",
    "EPOCH": "2025-03-19T02:12:08.319744",
    "MEAN_MOTION": "2.00569561",
    "ECCENTRICITY": "0.00185910",
    "INCLINATION": "55.3352",
    "RA_OF_ASC_NODE": "350.7279",
    "ARG_OF_PERICENTER": "230.2919",
    "MEAN_ANOMALY": "336.1009",
    "EPHEMERIS_TYPE": "0",
    "CLASSIFICATION_TYPE": "U",
    "NORAD_CAT_ID": "48859",
    "ELEMENT_SET_NO": "999",
    "REV_AT_EPOCH": "2762",
    "BSTAR": "0.00000000000000",
    "MEAN_MOTION_DOT": "-0.00000094",
    "MEAN_MOTION_DDOT": "0.0000000000000",
    "SEMIMAJOR_AXIS": "26559.822",
    "PERIOD": "717.955",
    "APOAPSIS": "20231.064",
    "PERIAPSIS": "20132.310",
    "OBJECT_TYPE": "PAYLOAD",
    "RCS_SIZE": "LARGE",
    "COUNTRY_CODE": "US",
    "LAUNCH_DATE": "2021-06-17",
    "SITE": "AFETR",
    "DECAY_DATE": null,
    "FILE": "4674121",
    "GP_ID": "283503625",
    "TLE_LINE0": "0 NAVSTAR 81 (USA 319)",
    "TLE_LINE1": "1 48859U 21054A   25078.09176296 -.00000094  00000-0  00000-0 0  9992",
    "TLE_LINE2": "2 48859  55.3352 350.7279 0018591 230.2919 336.1009  2.00569561 27625"
  },
  {
    "CCSDS_OMM_VERS": "2.0",
    "COMMENT": "GENERATED VIA SPACE-TRACK.ORG API",
    "CREATION_DATE": "2025-03-19T17:43:14",
    "ORIGINATOR": "18 SPCS",
    "OBJECT_NAME": "NAVSTAR 76 (USA 266)",
    "OBJECT_ID": "2016-007A",
    "CENTER_NAME": "EARTH",
    "REF_FRAME": "TEME",
    "TIME_SYSTEM": "UTC",
    "MEAN_ELEMENT_THEORY": "SGP4",
    "EPOCH": "2025-03-19T03:55:37.961184",
    "MEAN_MOTION": "2.00574097",
    "ECCENTRICITY": "0.00871410",
    "INCLINATION": "55.2529",
    "RA_OF_ASC_NODE": "107.5213",
    "ARG_OF_PERICENTER": "241.6747",
    "MEAN_ANOMALY": "117.5034",
    "EPHEMERIS_TYPE": "0",
    "CLASSIFICATION_TYPE": "U",
    "NORAD_CAT_ID": "41328",
    "ELEMENT_SET_NO": "999",
    "REV_AT_EPOCH": "6671",
    "BSTAR": "0.00000000000000",
    "MEAN_MOTION_DOT": "0.00000017",
    "MEAN_MOTION_DDOT": "0.0000000000000",
    "SEMIMAJOR_AXIS": "26559.421",
    "PERIOD": "717.939",
    "APOAPSIS": "20412.728",
    "PERIAPSIS": "19949.845",
    "OBJECT_TYPE": "PAYLOAD",
    "RCS_SIZE": "LARGE",
    "COUNTRY_CODE": "US",
    "LAUNCH_DATE": "2016-02-05",
    "SITE": "AFETR",
    "DECAY_DATE": null,
    "FILE": "4674121",
    "GP_ID": "283499485",
    "TLE_LINE0": "0 NAVSTAR 76 (USA 266)",
    "TLE_LINE1": "1 41328U 16007A   25078.16363381  .00000017  00000-0  00000-0 0  9993",
    "TLE_LINE2": "2 41328  55.2529 107.5213 0087141 241.6747 117.5034  2.00574097 66714"
  },
  {
    "CCSDS_OMM_VERS": "2.0",
    "COMMENT": "GENERATED VIA SPACE-TRACK.ORG API",
    "CREATION_DATE": "2025-03-19T17:43:14",
    "ORIGINATOR": "18 SPCS",
    "OBJECT_NAME": "NAVSTAR 64 (USA 206)",
    "OBJECT_ID": "2009-043A",
    "CENTER_NAME": "EARTH",
    "REF_FRAME": "TEME",
    "TIME_SYSTEM": "UTC",
    "MEAN_ELEMENT_THEORY": "SGP4",
    "EPOCH": "2025-03-19T04:08:42.643392",
    "MEAN_MOTION": "2.00553024",
    "ECCENTRICITY": "0.00540250",
    "INCLINATION": "55.8983",
    "RA_OF_ASC_NODE": "45.3781",
    "ARG_OF_PERICENTER": "74.9170",
    "MEAN_ANOMALY": "106.7987",
    "EPHEMERIS_TYPE": "0",
    "CLASSIFICATION_TYPE": "U",
    "NORAD_CAT_ID": "35752",
    "ELEMENT_SET_NO": "999",
    "REV_AT_EPOCH": "11423",
    "BSTAR": "0.00000000000000",
    "MEAN_MOTION_DOT": "-0.00000047",
    "MEAN_MOTION_DDOT": "0.0000000000000",
    "SEMIMAJOR_AXIS": "26561.282",
    "PERIOD": "718.015",
    "APOAPSIS": "20326.644",
    "PERIAPSIS": "20039.650",
    "OBJECT_TYPE": "PAYLOAD",
    "RCS_SIZE": "LARGE",
    "COUNTRY_CODE": "US",
    "LAUNCH_DATE": "2009-08-17",
    "SITE": "AFETR",
    "DECAY_DATE": null,
    "FILE": "4674121",
    "GP_ID": "283496342",
    "TLE_LINE0": "0 NAVSTAR 64 (USA 206)",
    "TLE_LINE1": "1 35752U 09043A   25078.17271578 -.00000047  00000-0  00000-0 0  9990",
    "TLE_LINE2": "2 35752  55.8983  45.3781 0054025  74.9170 106.7987  2.00553024114234"
  },
  {
    "CCSDS_OMM_VERS": "2.0",
    "COMMENT": "GENERATED VIA SPACE-TRACK.ORG API",
    "CREATION_DATE": "2025-03-19T17:43:14",
    "ORIGINATOR": "18 SPCS",
    "OBJECT_NAME": "NAVSTAR 78 (USA 293)",
    "OBJECT_ID": "2019-056A",
    "CENTER_NAME": "EARTH",
    "REF_FRAME": "TEME",
    "TIME_SYSTEM": "UTC",
    "MEAN_ELEMENT_THEORY": "SGP4",
    "EPOCH": "2025-03-19T04:25:29.124768",
    "MEAN_MOTION": "2.00561106",
    "ECCENTRICITY": "0.00491760",
    "INCLINATION": "55.8049",
    "RA_OF_ASC_NODE": "349.2008",
    "ARG_OF_PERICENTER": "193.7908",
    "MEAN_ANOMALY": "337.4702",
    "EPHEMERIS_TYPE": "0",
    "CLASSIFICATION_TYPE": "U",
    "NORAD_CAT_ID": "44506",
    "ELEMENT_SET_NO": "999",
    "REV_AT_EPOCH": "4094",
    "BSTAR": "0.00000000000000",
    "MEAN_MOTION_DOT": "-0.00000093",
    "MEAN_MOTION_DDOT": "0.0000000000000",
    "SEMIMAJOR_AXIS": "26560.568",
    "PERIOD": "717.986",
    "APOAPSIS": "20313.048",
    "PERIAPSIS": "20051.819",
    "OBJECT_TYPE": "PAYLOAD",
    "RCS_SIZE": "LARGE",
    "COUNTRY_CODE": "US",
    "LAUNCH_DATE": "2019-08-22",
    "SITE": "AFETR",
    "DECAY_DATE": null,
    "FILE": "4674121",
    "GP_ID": "283501351",
    "TLE_LINE0": "0 NAVSTAR 78 (USA 293)",
    "TLE_LINE1": "1 44506U 19056A   25078.18436487 -.00000093  00000-0  00000-0 0  9996",
    "TLE_LINE2": "2 44506  55.8049 349.2008 0049176 193.7908 337.4702  2.00561106 40946"
  }
]
